ORBCOMM FM36 [-]        
1 25984U 99065E   24012.13110235  .00001728  00000+0  64979-3 0  9997
2 25984  45.0416  38.6067 0004528 224.8916 135.1566 14.35043445259940
ORBCOMM FM35 [+]        
1 25985U 99065F   24011.51513948  .00001389  00000+0  53569-3 0  9993
2 25985  45.0415  43.8151 0004909 288.0137  72.0175 14.34697774259856
ORBCOMM FM34 [-]        
1 25986U 99065G   24011.90000684  .00001495  00000+0  57316-3 0  9997
2 25986  45.0411  42.5044 0005632 254.3589 105.6637 14.34653980259836
ORBCOMM FM38 [-]        
1 33060U 08031A   24011.83337717  .00002773  00000+0  42090-3 0  9997
2 33060  48.4414 275.3143 0005539 319.9883  40.0622 14.76724596837437
ORBCOMM FM41 [-]        
1 33061U 08031B   24012.15710010  .00002778  00000+0  42409-3 0  9994
2 33061  48.4448 280.1295 0004719 307.7450 205.4936 14.76471387837422
ORBCOMM FM29 [-]        
1 33062U 08031C   24011.99183360  .00002978  00000+0  45351-3 0  9999
2 33062  48.4409 288.9251 0006661 306.2195 145.1019 14.76370591837265
